0 THOR ABLESTAR DEB
1 00645U 61015GW  13280.38088906 -.00000106  00000-0 -91435-4 0  2891
2 00645 066.5943 351.4998 0423001 234.4638 206.2223 13.02664934476023
0 THOR ABLESTAR DEB
1 00645U 61015GW  13282.60615922  .00000267  00000-0  69001-3 0  2903
2 00645 066.5941 346.7800 0422912 233.2216 201.8311 13.02662590476316
0 THOR ABLESTAR DEB
1 00645U 61015GW  13287.45268637  .00000089  00000-0  31666-3 0  2928
2 00645 066.5932 336.5009 0422702 230.5094 250.0295 13.02669403476941
0 THOR ABLESTAR DEB
1 00645U 61015GW  13289.52550546 -.00000145  00000-0 -17263-3 0  2934
2 00645 066.5927 332.1041 0422635 229.3544 250.7166 13.02672806477210
0 THOR ABLESTAR DEB
1 00645U 61015GW  13291.52984252 -.00000006  00000-0  11854-3 0  2948
2 00645 066.5923 327.8526 0422538 228.2331 290.2874 13.02672104477473
0 THOR ABLESTAR DEB
1 00645U 61015GW  13294.19692696  .00000425  00000-0  10222-2 0  2954
2 00645 066.5924 322.1955 0422414 226.7399 197.8972 13.02669913477822
